[{"OBJECT_NAME":"ONEWEB-0261","OBJECT_ID":"2021-060N","EPOCH":"2025-09-16T02:09:52.654464","MEAN_MOTION":13.16594236,"ECCENTRICITY":0.00014666,"INCLINATION":87.8973,"RA_OF_ASC_NODE":283.4317,"ARG_OF_PERICENTER":87.0032,"MEAN_ANOMALY":273.1266,"EPHEMERIS_TYPE":0,"CLASSIFICATION_TYPE":"U","NORAD_CAT_ID":48979,"ELEMENT_SET_NO":999,"REV_AT_EPOCH":20359,"BSTAR":5.6615239e-5,"MEAN_MOTION_DOT":3.5e-7,"MEAN_MOTION_DDOT":0},{"OBJECT_NAME":"ONEWEB-0262","OBJECT_ID":"2021-060P","EPOCH":"2025-09-16T07:09:39.766752","MEAN_MOTION":13.16596412,"ECCENTRICITY":0.00017217,"INCLINATION":87.8983,"RA_OF_ASC_NODE":283.3548,"ARG_OF_PERICENTER":102.2017,"MEAN_ANOMALY":257.9307,"EPHEMERIS_TYPE":0,"CLASSIFICATION_TYPE":"U","NORAD_CAT_ID":48980,"ELEMENT_SET_NO":999,"REV_AT_EPOCH":20358,"BSTAR":0.00028676067,"MEAN_MOTION_DOT":1.22e-6,"MEAN_MOTION_DDOT":0},{"OBJECT_NAME":"ONEWEB-0263","OBJECT_ID":"2021-060Q","EPOCH":"2025-09-16T00:37:32.340000","MEAN_MOTION":13.1659488,"ECCENTRICITY":0.00014235,"INCLINATION":87.8972,"RA_OF_ASC_NODE":283.431,"ARG_OF_PERICENTER":96.025,"MEAN_ANOMALY":264.1043,"EPHEMERIS_TYPE":0,"CLASSIFICATION_TYPE":"U","NORAD_CAT_ID":48981,"ELEMENT_SET_NO":999,"REV_AT_EPOCH":20351,"BSTAR":0.00013028497,"MEAN_MOTION_DOT":6.3e-7,"MEAN_MOTION_DDOT":0},{"OBJECT_NAME":"ONEWEB-0264","OBJECT_ID":"2021-060R","EPOCH":"2025-09-16T01:31:06.787200","MEAN_MOTION":13.16593126,"ECCENTRICITY":0.00017551,"INCLINATION":87.8972,"RA_OF_ASC_NODE":283.4284,"ARG_OF_PERICENTER":85.3403,"MEAN_ANOMALY":274.7928,"EPHEMERIS_TYPE":0,"CLASSIFICATION_TYPE":"U","NORAD_CAT_ID":48982,"ELEMENT_SET_NO":999,"REV_AT_EPOCH":20352,"BSTAR":0.00028368336,"MEAN_MOTION_DOT":1.21e-6,"MEAN_MOTION_DDOT":0},{"OBJECT_NAME":"ONEWEB-0266","OBJECT_ID":"2021-060T","EPOCH":"2025-09-16T02:01:53.539680","MEAN_MOTION":13.16595283,"ECCENTRICITY":0.00019749,"INCLINATION":87.8982,"RA_OF_ASC_NODE":283.4013,"ARG_OF_PERICENTER":97.8472,"MEAN_ANOMALY":262.2883,"EPHEMERIS_TYPE":0,"CLASSIFICATION_TYPE":"U","NORAD_CAT_ID":48984,"ELEMENT_SET_NO":999,"REV_AT_EPOCH":20351,"BSTAR":8.7520313e-5,"MEAN_MOTION_DOT":4.6e-7,"MEAN_MOTION_DDOT":0},{"OBJECT_NAME":"ONEWEB-0267","OBJECT_ID":"2021-060U","EPOCH":"2025-09-16T00:28:25.154976","MEAN_MOTION":13.16595052,"ECCENTRICITY":0.00016518,"INCLINATION":87.8979,"RA_OF_ASC_NODE":283.4169,"ARG_OF_PERICENTER":90.1691,"MEAN_ANOMALY":269.9629,"EPHEMERIS_TYPE":0,"CLASSIFICATION_TYPE":"U","NORAD_CAT_ID":48985,"ELEMENT_SET_NO":999,"REV_AT_EPOCH":20351,"BSTAR":9.6145345e-5,"MEAN_MOTION_DOT":5.0e-7,"MEAN_MOTION_DDOT":0},{"OBJECT_NAME":"ONEWEB-0268","OBJECT_ID":"2021-060V","EPOCH":"2025-09-16T01:32:14.429760","MEAN_MOTION":13.16595095,"ECCENTRICITY":0.00018432,"INCLINATION":87.898,"RA_OF_ASC_NODE":283.414,"ARG_OF_PERICENTER":89.1735,"MEAN_ANOMALY":270.9607,"EPHEMERIS_TYPE":0,"CLASSIFICATION_TYPE":"U","NORAD_CAT_ID":48986,"ELEMENT_SET_NO":999,"REV_AT_EPOCH":20378,"BSTAR":0.00014965901,"MEAN_MOTION_DOT":7.0e-7,"MEAN_MOTION_DDOT":0},{"OBJECT_NAME":"ONEWEB-0269","OBJECT_ID":"2021-060W","EPOCH":"2025-09-16T01:04:54.284736","MEAN_MOTION":13.16593684,"ECCENTRICITY":0.00020437,"INCLINATION":87.8971,"RA_OF_ASC_NODE":283.4479,"ARG_OF_PERICENTER":91.2647,"MEAN_ANOMALY":268.8718,"EPHEMERIS_TYPE":0,"CLASSIFICATION_TYPE":"U","NORAD_CAT_ID":48987,"ELEMENT_SET_NO":999,"REV_AT_EPOCH":20355,"BSTAR":0.00014429963,"MEAN_MOTION_DOT":6.8e-7,"MEAN_MOTION_DDOT":0},{"OBJECT_NAME":"ONEWEB-0270","OBJECT_ID":"2021-060X","EPOCH":"2025-09-16T01:29:58.345440","MEAN_MOTION":13.16594905,"ECCENTRICITY":0.00014548,"INCLINATION":87.8981,"RA_OF_ASC_NODE":283.4162,"ARG_OF_PERICENTER":99.2293,"MEAN_ANOMALY":260.9002,"EPHEMERIS_TYPE":0,"CLASSIFICATION_TYPE":"U","NORAD_CAT_ID":48988,"ELEMENT_SET_NO":999,"REV_AT_EPOCH":20359,"BSTAR":0.00018892909,"MEAN_MOTION_DOT":8.5e-7,"MEAN_MOTION_DDOT":0},{"OBJECT_NAME":"ONEWEB-0271","OBJECT_ID":"2021-060Y","EPOCH":"2025-09-16T01:11:43.959840","MEAN_MOTION":13.16595064,"ECCENTRICITY":0.00016026,"INCLINATION":87.8981,"RA_OF_ASC_NODE":283.4027,"ARG_OF_PERICENTER":90.7501,"MEAN_ANOMALY":269.3813,"EPHEMERIS_TYPE":0,"CLASSIFICATION_TYPE":"U","NORAD_CAT_ID":48989,"ELEMENT_SET_NO":999,"REV_AT_EPOCH":20359,"BSTAR":0.00025792717,"MEAN_MOTION_DOT":1.11e-6,"MEAN_MOTION_DDOT":0},{"OBJECT_NAME":"ONEWEB-0272","OBJECT_ID":"2021-060Z","EPOCH":"2025-09-16T07:11:56.172480","MEAN_MOTION":13.16596579,"ECCENTRICITY":0.00016901,"INCLINATION":87.8974,"RA_OF_ASC_NODE":283.3805,"ARG_OF_PERICENTER":86.351,"MEAN_ANOMALY":273.7814,"EPHEMERIS_TYPE":0,"CLASSIFICATION_TYPE":"U","NORAD_CAT_ID":48990,"ELEMENT_SET_NO":999,"REV_AT_EPOCH":20357,"BSTAR":0.00023207573,"MEAN_MOTION_DOT":1.02e-6,"MEAN_MOTION_DDOT":0},{"OBJECT_NAME":"ONEWEB-0273","OBJECT_ID":"2021-060AA","EPOCH":"2025-09-16T00:26:09.021408","MEAN_MOTION":13.16594503,"ECCENTRICITY":0.00017351,"INCLINATION":87.8979,"RA_OF_ASC_NODE":283.4249,"ARG_OF_PERICENTER":95.5517,"MEAN_ANOMALY":264.5812,"EPHEMERIS_TYPE":0,"CLASSIFICATION_TYPE":"U","NORAD_CAT_ID":48991,"ELEMENT_SET_NO":999,"REV_AT_EPOCH":20351,"BSTAR":-6.3211352e-5,"MEAN_MOTION_DOT":-1.1e-7,"MEAN_MOTION_DDOT":0},{"OBJECT_NAME":"ONEWEB-0274","OBJECT_ID":"2021-060AB","EPOCH":"2025-09-16T01:02:37.336416","MEAN_MOTION":13.16594393,"ECCENTRICITY":0.00019079,"INCLINATION":87.897,"RA_OF_ASC_NODE":283.451,"ARG_OF_PERICENTER":80.6325,"MEAN_ANOMALY":279.5021,"EPHEMERIS_TYPE":0,"CLASSIFICATION_TYPE":"U","NORAD_CAT_ID":48992,"ELEMENT_SET_NO":999,"REV_AT_EPOCH":20355,"BSTAR":5.8846793e-5,"MEAN_MOTION_DOT":3.5e-7,"MEAN_MOTION_DDOT":0},{"OBJECT_NAME":"ONEWEB-0275","OBJECT_ID":"2021-060AC","EPOCH":"2025-09-16T00:46:39.239904","MEAN_MOTION":13.16594045,"ECCENTRICITY":0.00018131,"INCLINATION":87.8978,"RA_OF_ASC_NODE":283.4168,"ARG_OF_PERICENTER":89.7324,"MEAN_ANOMALY":270.4015,"EPHEMERIS_TYPE":0,"CLASSIFICATION_TYPE":"U","NORAD_CAT_ID":48993,"ELEMENT_SET_NO":999,"REV_AT_EPOCH":20348,"BSTAR":-1.5467681e-5,"MEAN_MOTION_DOT":7.0e-8,"MEAN_MOTION_DDOT":0},{"OBJECT_NAME":"ONEWEB-0276","OBJECT_ID":"2021-060AD","EPOCH":"2025-09-16T07:02:50.108064","MEAN_MOTION":13.16595692,"ECCENTRICITY":0.00018026,"INCLINATION":87.8983,"RA_OF_ASC_NODE":283.3619,"ARG_OF_PERICENTER":97.7447,"MEAN_ANOMALY":262.3888,"EPHEMERIS_TYPE":0,"CLASSIFICATION_TYPE":"U","NORAD_CAT_ID":48994,"ELEMENT_SET_NO":999,"REV_AT_EPOCH":20353,"BSTAR":0.0002493899,"MEAN_MOTION_DOT":1.08e-6,"MEAN_MOTION_DDOT":0},{"OBJECT_NAME":"ONEWEB-0277","OBJECT_ID":"2021-060AE","EPOCH":"2025-09-16T01:52:45.410304","MEAN_MOTION":13.16595301,"ECCENTRICITY":0.00014893,"INCLINATION":87.8975,"RA_OF_ASC_NODE":283.4377,"ARG_OF_PERICENTER":89.434,"MEAN_ANOMALY":270.6962,"EPHEMERIS_TYPE":0,"CLASSIFICATION_TYPE":"U","NORAD_CAT_ID":48995,"ELEMENT_SET_NO":999,"REV_AT_EPOCH":20349,"BSTAR":0.00016582675,"MEAN_MOTION_DOT":7.6e-7,"MEAN_MOTION_DDOT":0},{"OBJECT_NAME":"ONEWEB-0278","OBJECT_ID":"2021-060AF","EPOCH":"2025-09-16T07:07:22.761408","MEAN_MOTION":13.16596307,"ECCENTRICITY":0.00020078,"INCLINATION":87.8983,"RA_OF_ASC_NODE":283.3581,"ARG_OF_PERICENTER":98.1852,"MEAN_ANOMALY":261.9507,"EPHEMERIS_TYPE":0,"CLASSIFICATION_TYPE":"U","NORAD_CAT_ID":48996,"ELEMENT_SET_NO":999,"REV_AT_EPOCH":20365,"BSTAR":0.00030466203,"MEAN_MOTION_DOT":1.29e-6,"MEAN_MOTION_DDOT":0}]
