ONEWEB-0261             
1 48979U 21060N   25259.09019276  .00000035  00000+0  56615-4 0  9997
2 48979  87.8973 283.4317 0001466  87.0032 273.1266 13.16594236203592
ONEWEB-0262             
1 48980U 21060P   25259.29837693  .00000122  00000+0  28676-3 0  9994
2 48980  87.8983 283.3548 0001721 102.2017 257.9307 13.16596412203580
ONEWEB-0263             
1 48981U 21060Q   25259.02606875  .00000063  00000+0  13028-3 0  9991
2 48981  87.8972 283.4310 0001423  96.0250 264.1043 13.16594880203512
ONEWEB-0264             
1 48982U 21060R   25259.06327300  .00000121  00000+0  28368-3 0  9997
2 48982  87.8972 283.4284 0001755  85.3403 274.7928 13.16593126203524
ONEWEB-0266             
1 48984U 21060T   25259.08464745  .00000046  00000+0  87520-4 0  9998
2 48984  87.8982 283.4013 0001974  97.8472 262.2883 13.16595283203511
ONEWEB-0267             
1 48985U 21060U   25259.01973559  .00000050  00000+0  96145-4 0  9998
2 48985  87.8979 283.4169 0001651  90.1691 269.9629 13.16595052203517
ONEWEB-0268             
1 48986U 21060V   25259.06405590  .00000070  00000+0  14966-3 0  9991
2 48986  87.8980 283.4140 0001843  89.1735 270.9607 13.16595095203783
ONEWEB-0269             
1 48987U 21060W   25259.04507274  .00000068  00000+0  14430-3 0  9995
2 48987  87.8971 283.4479 0002043  91.2647 268.8718 13.16593684203554
ONEWEB-0270             
1 48988U 21060X   25259.06248085  .00000085  00000+0  18893-3 0  9996
2 48988  87.8981 283.4162 0001454  99.2293 260.9002 13.16594905203595
ONEWEB-0271             
1 48989U 21060Y   25259.04981435  .00000111  00000+0  25793-3 0  9995
2 48989  87.8981 283.4027 0001602  90.7501 269.3813 13.16595064203599
ONEWEB-0272             
1 48990U 21060Z   25259.29995570  .00000102  00000+0  23208-3 0  9998
2 48990  87.8974 283.3805 0001690  86.3510 273.7814 13.16596579203574
ONEWEB-0273             
1 48991U 21060AA  25259.01815997 -.00000011  00000+0 -63211-4 0  9993
2 48991  87.8979 283.4249 0001735  95.5517 264.5812 13.16594503203517
ONEWEB-0274             
1 48992U 21060AB  25259.04348769  .00000035  00000+0  58847-4 0  9998
2 48992  87.8970 283.4510 0001907  80.6325 279.5021 13.16594393203552
ONEWEB-0275             
1 48993U 21060AC  25259.03239861  .00000007  00000+0 -15468-4 0  9992
2 48993  87.8978 283.4168 0001813  89.7324 270.4015 13.16594045203484
ONEWEB-0276             
1 48994U 21060AD  25259.29363551  .00000108  00000+0  24939-3 0  9998
2 48994  87.8983 283.3619 0001802  97.7447 262.3888 13.16595692203537
ONEWEB-0277             
1 48995U 21060AE  25259.07830336  .00000076  00000+0  16583-3 0  9995
2 48995  87.8975 283.4377 0001489  89.4340 270.6962 13.16595301203499
ONEWEB-0278             
1 48996U 21060AF  25259.29679122  .00000129  00000+0  30466-3 0  9999
2 48996  87.8983 283.3581 0002007  98.1852 261.9507 13.16596307203650
